{
  "52836": {
    "noradId": "52836",
    "tle": [
      "1 52836C 22062G   26089.72548611 -.00016106  00000+0 -97317-3 0   890",
      "2 52836  53.2158 299.8956 0001169  80.7490  28.5255 15.10198749    16"
    ]
  },
  "52837": {
    "noradId": "52837",
    "tle": [
      "1 52837C 22062H   26089.69979167 -.00028846  00000+0 -18085-2 0   899",
      "2 52837  53.2165 299.8053 0001402  92.3274  24.6326 15.08858871    14"
    ]
  },
  "52838": {
    "noradId": "52838",
    "tle": [
      "1 52838C 22062J   26089.88104167 -.00025326  00000+0 -15883-2 0   894",
      "2 52838  53.2160 298.9823 0001367  86.7361 275.2929 15.08847633    16"
    ]
  },
  "52839": {
    "noradId": "52839",
    "tle": [
      "1 52839C 22062K   26089.73520833 -.00043664  00000+0 -27375-2 0   895",
      "2 52839  53.2167 299.6463 0001524  85.6927 263.7552 15.08866939    17"
    ]
  },
  "52840": {
    "noradId": "52840",
    "tle": [
      "1 52840C 22062L   26089.79701389 -.00482050  00000+0 -27070-1 0   897",
      "2 52840  53.2170 299.1429 0001557  84.0934 338.6942 15.13067822    12"
    ]
  },
  "52841": {
    "noradId": "52841",
    "tle": [
      "1 52841C 22062M   26089.78729167 -.00024455  00000+0 -15336-2 0   895",
      "2 52841  53.2162 299.4106 0001349  89.3020 243.2118 15.08848118    17"
    ]
  },
  "52842": {
    "noradId": "52842",
    "tle": [
      "1 52842C 22062N   26089.89284722 -.00012544  00000+0 -78664-3 0   891",
      "2 52842  53.2164 298.8626 0001373  88.4267  17.8058 15.08841765    19"
    ]
  },
  "52843": {
    "noradId": "52843",
    "tle": [
      "1 52843C 22062P   26089.69145833 -.00021610  00000+0 -13547-2 0   891",
      "2 52843  53.2157 299.8410 0001465  89.8578 121.8095 15.08860420    12"
    ]
  },
  "52844": {
    "noradId": "52844",
    "tle": [
      "1 52844C 22062Q   26089.87548611 -.00007581  00000+0 -47541-3 0   896",
      "2 52844  53.2164 299.0159 0001362  84.2414 327.5880 15.08840389    16"
    ]
  },
  "52845": {
    "noradId": "52845",
    "tle": [
      "1 52845C 22062R   26089.73243056 -.00029470  00000+0 -18480-2 0   897",
      "2 52845  53.2159 299.7225 0001462  88.5136 325.7908 15.08852300    18"
    ]
  },
  "52846": {
    "noradId": "52846",
    "tle": [
      "1 52846C 22062S   26089.71993056 -.00030983  00000+0 -19425-2 0   899",
      "2 52846  53.2162 299.7223 0001344  91.4758 249.7253 15.08861152    16"
    ]
  },
  "52847": {
    "noradId": "52847",
    "tle": [
      "1 52847C 22062T   26089.89215278 -.00007417  00000+0 -46510-3 0   894",
      "2 52847  53.2145 298.9433 0001394  84.0553 178.3571 15.08839731    16"
    ]
  },
  "52848": {
    "noradId": "52848",
    "tle": [
      "1 52848C 22062U   26089.74215278 -.00027928  00000+0 -17514-2 0   899",
      "2 52848  53.2163 299.6135 0001343  90.2118 336.9831 15.08851144    17"
    ]
  },
  "52849": {
    "noradId": "52849",
    "tle": [
      "1 52849C 22062V   26089.89701389 -.00020383  00000+0 -12782-2 0   899",
      "2 52849  53.2162 288.9188 0001380  86.3884 237.4427 15.08846638    11"
    ]
  },
  "52850": {
    "noradId": "52850",
    "tle": [
      "1 52850C 22062W   26089.75881944 -.00029267  00000+0 -18354-2 0   893",
      "2 52850  53.2160 299.8975 0001343  92.9406 319.3884 15.08850912    15"
    ]
  },
  "52851": {
    "noradId": "52851",
    "tle": [
      "1 52851C 22062X   26089.76229167 -.00031857  00000+0 -19978-2 0   899",
      "2 52851  53.2160 289.5228 0001369  85.2068 246.4407 15.08852172    11"
    ]
  },
  "52852": {
    "noradId": "52852",
    "tle": [
      "1 52852C 22062Y   26089.89631944  .00017299  00000+0  10844-2 0   899",
      "2 52852  53.2160 288.9232 0001215  97.7500 202.2013 15.08840640    19"
    ]
  },
  "52853": {
    "noradId": "52853",
    "tle": [
      "1 52853C 22062Z   26089.86159722 -.00036113  00000+0 -22648-2 0   899",
      "2 52853  53.2148 289.0512 0001408  82.8628 123.3127 15.08851980    17"
    ]
  },
  "52854": {
    "noradId": "52854",
    "tle": [
      "1 52854C 22062AA  26089.74215278 -.00042925  00000+0 -26916-2 0   896",
      "2 52854  53.2152 289.6108 0001320  89.3853 152.8039 15.08861911    19"
    ]
  },
  "52855": {
    "noradId": "52855",
    "tle": [
      "1 52855C 22062AB  26089.87201389 -.00003732  00000+0 -23404-3 0   892",
      "2 52855  53.2142 289.0339 0001434  81.8424 206.1092 15.08838568    10"
    ]
  },
  "52856": {
    "noradId": "52856",
    "tle": [
      "1 52856C 22062AC  26089.88243056  .00013286  00000+0  83318-3 0   894",
      "2 52856  53.2153 289.0311 0001461  78.2143 221.1262 15.08830274    13"
    ]
  },
  "52857": {
    "noradId": "52857",
    "tle": [
      "1 52857C 22062AD  26089.70812500 -.00042165  00000+0 -26439-2 0   892",
      "2 52857  53.2144 289.7680 0001378  91.4624  65.7934 15.08860847    15"
    ]
  },
  "52858": {
    "noradId": "52858",
    "tle": [
      "1 52858C 22062AE  26089.79840278 -.00040318  00000+0 -25281-2 0   897",
      "2 52858  53.2149 289.3885 0001747  85.4531 142.4295 15.08860194    12"
    ]
  },
  "52859": {
    "noradId": "52859",
    "tle": [
      "1 52859C 22062AF  26089.88937500  .00010717  00000+0  67193-3 0   890",
      "2 52859  53.2141 288.9558 0001252  84.9134 357.3293 15.08840012    13"
    ]
  },
  "52860": {
    "noradId": "52860",
    "tle": [
      "1 52860C 22062AG  26089.86993056 -.00026164  00000+0 -16408-2 0   895",
      "2 52860  53.2148 289.0417 0001465  78.7243 217.9218 15.08849282    12"
    ]
  },
  "52861": {
    "noradId": "52861",
    "tle": [
      "1 52861C 22062AH  26089.72895833 -.00032672  00000+0 -20489-2 0   890",
      "2 52861  53.2157 289.6848 0001368  91.4522 293.8283 15.08852568    17"
    ]
  },
  "52862": {
    "noradId": "52862",
    "tle": [
      "1 52862C 22062AJ  26089.86715278 -.00006363  00000+0 -39911-3 0   899",
      "2 52862  53.2146 289.0535 0001426  84.9626 256.5937 15.08831557    17"
    ]
  },
  "52863": {
    "noradId": "52863",
    "tle": [
      "1 52863C 22062AK  26089.70326389 -.00026392  00000+0 -16550-2 0   891",
      "2 52863  53.2151 289.7897 0001399  94.0062 116.8213 15.08851195    12"
    ]
  },
  "52864": {
    "noradId": "52864",
    "tle": [
      "1 52864C 22062AL  26089.69423611 -.00027603  00000+0 -17322-2 0   890",
      "2 52864  53.2149 289.8291 0001468  86.9873  54.8926 15.08826052    12"
    ]
  },
  "52865": {
    "noradId": "52865",
    "tle": [
      "1 52865C 22062AM  26089.87548611 -.00023047  00000+0 -14452-2 0   898",
      "2 52865  53.2158 289.0175 0001365  87.5334  39.3057 15.08848710    19"
    ]
  },
  "52866": {
    "noradId": "52866",
    "tle": [
      "1 52866C 22062AN  26089.79354167 -.00022232  00000+0 -13942-2 0   899",
      "2 52866  53.2153 289.3851 0001357  90.8804 270.5950 15.08845867    10"
    ]
  },
  "52867": {
    "noradId": "52867",
    "tle": [
      "1 52867C 22062AP  26089.71993056 -.00029350  00000+0 -18401-2 0   891",
      "2 52867  53.2161 289.7144 0001564  88.5873 312.8323 15.08858854    13"
    ]
  },
  "52868": {
    "noradId": "52868",
    "tle": [
      "1 52868C 22062AQ  26089.90048611  .00005366  00000+0  33649-3 0   892",
      "2 52868  53.2155 288.9339 0001381  85.6523 157.0347 15.08833122    17"
    ]
  },
  "52869": {
    "noradId": "52869",
    "tle": [
      "1 52869C 22062AR  26089.78451389 -.00021245  00000+0 -13322-2 0   890",
      "2 52869  53.2145 279.4246 0001364  87.6243 339.7908 15.08847511    10"
    ]
  },
  "52871": {
    "noradId": "52871",
    "tle": [
      "1 52871C 22062AT  26089.88381944  .00023363  00000+0  14652-2 0   891",
      "2 52871  53.2155 278.9793 0001378  85.8615 221.2667 15.08824111    11"
    ]
  },
  "52872": {
    "noradId": "52872",
    "tle": [
      "1 52872C 22062AU  26089.70881944 -.00035729  00000+0 -22404-2 0   893",
      "2 52872  53.2152 279.7360 0001523  92.1673 318.6789 15.08857443    15"
    ]
  },
  "52873": {
    "noradId": "52873",
    "tle": [
      "1 52873C 22062AV  26089.87687500  .00020205  00000+0  12669-2 0   897",
      "2 52873  53.2158 279.0103 0001401  84.8459 224.4072 15.08832475    12"
    ]
  },
  "52875": {
    "noradId": "52875",
    "tle": [
      "1 52875C 22062AX  26089.77131944 -.00019903  00000+0 -12484-2 0   894",
      "2 52875  53.2156 279.4823 0001348  86.4715  29.2180 15.08838029    10"
    ]
  },
  "52876": {
    "noradId": "52876",
    "tle": [
      "1 52876C 22062AY  26089.87756944  .00012578  00000+0  78886-3 0   897",
      "2 52876  53.2156 279.0072 0001345  86.4584 206.6914 15.08826495    14"
    ]
  },
  "52877": {
    "noradId": "52877",
    "tle": [
      "1 52877C 22062AZ  26089.71923611 -.00047764  00000+0 -29948-2 0   899",
      "2 52877  53.2139 279.7276 0001675  88.2277 244.4121 15.08866524    11"
    ]
  },
  "52878": {
    "noradId": "52878",
    "tle": [
      "1 52878C 22062BA  26089.89145833  .00007000  00000+0  43894-3 0   895",
      "2 52878  53.2157 278.9428 0001342  84.5667 344.0553 15.08836729    15"
    ]
  },
  "52879": {
    "noradId": "52879",
    "tle": [
      "1 52879C 22062BB  26089.73659722 -.00061934  00000+0 -38831-2 0   898",
      "2 52879  53.2142 279.6389 0001535  99.5575  27.4239 15.08874870    14"
    ]
  },
  "52880": {
    "noradId": "52880",
    "tle": [
      "1 52880C 22062BC  26089.76506944 -.00031523  00000+0 -19768-2 0   899",
      "2 52880  53.2139 279.5141 0001452  85.9199 175.8214 15.08851947    17"
    ]
  },
  "52882": {
    "noradId": "52882",
    "tle": [
      "1 52882C 22062BE  26089.83451389 -.00022585  00000+0 -14162-2 0   892",
      "2 52882  53.2148 278.7721 0001544  87.0991  92.3375 15.08849448    13"
    ]
  },
  "52986": {
    "noradId": "52986",
    "tle": [
      "1 52986C 22076A   26089.74215278  .00027932  00000+0  17503-2 0   898",
      "2 52986  53.2181 359.6107 0001336 101.2750  75.8775 15.08851595    19"
    ]
  }
}